ONEWEB-0228             
1 48780U 21045P   23358.15795587  .00000196  00000+0  48629-3 0  9994
2 48780  87.9000  79.5473 0001679 110.8905 249.2405 13.15541966126337
